NORAD_CAT_ID,OBJECT_NAME,OBJECT_TYPE,EPOCH,MEAN_MOTION,ECCENTRICITY,INCLINATION,RA_OF_ASC_NODE,ARG_OF_PERICENTER,MEAN_ANOMALY,BSTAR,MEAN_MOTION_DOT,MEAN_MOTION_DDOT,TLE_LINE0,TLE_LINE1,TLE_LINE2,SEMIMAJOR_AXIS,PERIOD,APOGEE,PERIGEE,DECAYED
53429.0,STARLINK-4543,PAYLOAD,2024-03-17 05:15:26,15.08828531,0.0001392,53.2172,107.5333,75.4686,284.646,-3.9946e-05,-9.23e-06,0.0,0 STARLINK-4543,1 53429U 22097AT  24077.21905971 -.00000923  00000-0 -39946-4 0  9998,2 53429  53.2172 107.5333 0001392  75.4686 284.6460 15.08828531 89231,6917.915,95.438,540.743,538.817,0.0
53429.0,STARLINK-4543,PAYLOAD,2024-03-17 11:36:59,15.0882909,0.0001233,53.2167,106.3407,89.7365,270.3769,-8.8731e-05,-1.699e-05,0.0,0 STARLINK-4543,1 53429U 22097AT  24077.48402055 -.00001699  00000-0 -88731-4 0  9999,2 53429  53.2167 106.3407 0001233  89.7365 270.3769 15.08829090 89752,6917.914,95.438,540.632,538.926,0.0
53429.0,STARLINK-4543,PAYLOAD,2024-03-18 08:17:00,15.08824208,0.0001334,53.2167,102.4772,92.0744,268.0401,0.00011704,1.575e-05,0.0,0 STARLINK-4543,1 53429U 22097AT  24078.34514027  .00001575  00000-0  11704-3 0  9994,2 53429  53.2167 102.4772 0001334  92.0744 268.0401 15.08824208 89409,6917.929,95.439,540.717,538.871,0.0
53429.0,STARLINK-4543,PAYLOAD,2024-03-19 08:07:47,15.08838288,0.000137,53.2169,98.0163,94.6967,265.4182,0.00024212,3.567e-05,0.0,0 STARLINK-4543,1 53429U 22097AT  24079.33873977  .00003567  00000-0  24212-3 0  9997,2 53429  53.2169  98.0163 0001370  94.6967 265.4182 15.08838288 89556,6917.886,95.438,540.698,538.803,0.0
53429.0,STARLINK-4543,PAYLOAD,2024-03-20 06:23:11,15.08841554,0.0001502,53.2171,93.8543,99.9924,260.1237,0.00014026,1.945e-05,0.0,0 STARLINK-4543,1 53429U 22097AT  24080.26610304  .00001945  00000-0  14026-3 0  9994,2 53429  53.2171  93.8543 0001502  99.9924 260.1237 15.08841554 90175,6917.876,95.437,540.78,538.702,0.0
53429.0,STARLINK-4543,PAYLOAD,2024-03-21 04:38:37,15.08834217,0.0001286,53.2174,89.6911,95.8377,264.2762,0.00011286,1.508e-05,0.0,0 STARLINK-4543,1 53429U 22097AT  24081.19348432  .00001508  00000-0  11286-3 0  9997,2 53429  53.2174  89.6911 0001286  95.8377 264.2762 15.08834217 89833,6917.898,95.438,540.653,538.873,0.0
53429.0,STARLINK-4543,PAYLOAD,2024-03-21 11:00:09,15.0884043,0.0001415,53.2162,88.5017,90.9295,269.1859,0.00019713,2.851e-05,0.0,0 STARLINK-4543,1 53429U 22097AT  24081.45844236  .00002851  00000-0  19713-3 0  9994,2 53429  53.2162  88.5017 0001415  90.9295 269.1859 15.08840430 90358,6917.879,95.438,540.723,538.765,0.0
53429.0,STARLINK-4543,PAYLOAD,2024-03-21 17:21:41,15.08849465,0.0001322,53.2167,87.3116,98.7812,261.3329,0.00035997,5.447e-05,0.0,0 STARLINK-4543,1 53429U 22097AT  24081.72339742  .00005447  00000-0  35997-3 0  9991,2 53429  53.2167  87.3116 0001322  98.7812 261.3329 15.08849465 89911,6917.851,95.437,540.631,538.802,0.0
53429.0,STARLINK-4543,PAYLOAD,2024-03-22 09:15:32,15.08878383,0.0001444,53.216,84.3389,91.0875,269.0283,0.0010492,0.00016467,0.0,0 STARLINK-4543,1 53429U 22097AT  24082.38579132  .00016467  00000-0  10492-2 0  9999,2 53429  53.2160  84.3389 0001444  91.0875 269.0283 15.08878383 90011,6917.763,95.435,540.627,538.629,0.0
53429.0,STARLINK-4543,PAYLOAD,2024-03-23 04:20:09,15.08848583,0.0001135,53.2166,80.7678,83.8813,276.2308,-0.00015603,-2.771e-05,0.0,0 STARLINK-4543,1 53429U 22097AT  24083.18066967 -.00002771  00000-0 -15603-3 0  9990,2 53429  53.2166  80.7678 0001135  83.8813 276.2308 15.08848583 90136,6917.854,95.437,540.504,538.934,0.0
53429.0,STARLINK-4543,PAYLOAD,2024-03-23 17:03:14,15.08851705,0.0001401,53.2159,78.391,105.8337,254.281,5.0126e-05,5.1e-06,0.0,0 STARLINK-4543,1 53429U 22097AT  24083.71058876  .00000510  00000-0  50126-4 0  9996,2 53429  53.2159  78.3910 0001401 105.8337 254.2810 15.08851705 90697,6917.845,95.437,540.679,538.74,0.0
53429.0,STARLINK-4543,PAYLOAD,2024-03-24 05:46:19,15.08853506,0.0001471,53.2163,76.0097,118.435,241.679,0.00067561,0.00010485,0.0,0 STARLINK-4543,1 53429U 22097AT  24084.24050753  .00010485  00000-0  67561-3 0  9993,2 53429  53.2163  76.0097 0001471 118.4350 241.6790 15.08853506 90299,6917.839,95.437,540.722,538.686,0.0
53429.0,STARLINK-4543,PAYLOAD,2024-03-24 08:57:05,15.08866383,0.0001656,53.216,75.415,116.603,243.5132,0.0012309,0.0001937,0.0,0 STARLINK-4543,1 53429U 22097AT  24084.37298560  .00019370  00000-0  12309-2 0  9998,2 53429  53.2160  75.4150 0001656 116.6030 243.5132 15.08866383 90792,6917.8,95.436,540.81,538.519,0.0
53429.0,STARLINK-4543,PAYLOAD,2024-03-24 16:54:00,15.08885222,0.0001814,53.2166,73.9247,122.9586,237.158,0.0015222,0.00024051,0.0,0 STARLINK-4543,1 53429U 22097AT  24084.70417726  .00024051  00000-0  15222-2 0  9991,2 53429  53.2166  73.9247 0001814 122.9586 237.1580 15.08885222 90362,6917.742,95.435,540.862,538.352,0.0
53429.0,STARLINK-4543,PAYLOAD,2024-03-24 23:15:33,15.08853875,0.0001377,53.2157,72.7387,110.7719,249.3421,0.00033189,5e-05,0.0,0 STARLINK-4543,1 53429U 22097AT  24084.96914154  .00005000  00000-0  33189-3 0  9992,2 53429  53.2157  72.7387 0001377 110.7719 249.3421 15.08853875 90886,6917.838,95.437,540.656,538.75,0.0
53429.0,STARLINK-4543,PAYLOAD,2024-03-25 05:37:06,15.08839733,0.0001662,53.2158,71.5502,99.4014,260.7166,0.001164,0.00018285,0.0,0 STARLINK-4543,1 53429U 22097AT  24085.23410470  .00018285  00000-0  11640-2 0  9991,2 53429  53.2158  71.5502 0001662  99.4014 260.7166 15.08839733 90443,6917.881,95.438,540.896,538.596,0.0
53429.0,STARLINK-4543,PAYLOAD,2024-03-25 23:06:22,15.0882762,0.0001335,53.2168,68.2751,113.7758,246.3374,0.0014381,0.00022666,0.0,0 STARLINK-4543,1 53429U 22097AT  24085.96275782  .00022666  00000-0  14381-2 0  9999,2 53429  53.2168  68.2751 0001335 113.7758 246.3374 15.08827620 91034,6917.918,95.438,540.707,538.86,0.0
53429.0,STARLINK-4543,PAYLOAD,2024-03-26 05:27:55,15.08815839,0.000131,53.2164,67.0878,83.445,276.6691,0.00053692,8.262e-05,0.0,0 STARLINK-4543,1 53429U 22097AT  24086.22772501  .00008262  00000-0  53692-3 0  9995,2 53429  53.2164  67.0878 0001310  83.4450 276.6691 15.08815839 90599,6917.954,95.439,540.725,538.913,0.0
53429.0,STARLINK-4543,PAYLOAD,2024-03-27 05:18:42,15.08865345,0.0001359,53.2166,62.6319,82.4981,277.6165,0.0020959,0.00033249,0.0,0 STARLINK-4543,1 53429U 22097AT  24087.22133033  .00033249  00000-0  20959-2 0  9999,2 53429  53.2166  62.6319 0001359  82.4981 277.6165 15.08865345 90744,6917.803,95.436,540.608,538.728,0.0
53429.0,STARLINK-4543,PAYLOAD,2024-03-27 08:29:28,15.08891098,0.0001437,53.2162,62.0354,83.7951,276.3205,0.0029419,0.0004691,0.0,0 STARLINK-4543,1 53429U 22097AT  24087.35380569  .00046910  00000-0  29419-2 0  9990,2 53429  53.2162  62.0354 0001437  83.7951 276.3205 15.08891098 90768,6917.724,95.434,540.583,538.595,0.0
53429.0,STARLINK-4543,PAYLOAD,2024-03-27 22:47:56,15.08914411,0.0005898,53.2176,59.3596,78.8712,281.2943,0.0022813,0.00036291,0.0,0 STARLINK-4543,1 53429U 22097AT  24087.94995902  .00036291  00000-0  22813-2 0  9990,2 53429  53.2176  59.3596 0005898  78.8712 281.2943 15.08914411 91338,6917.653,95.433,543.598,535.438,0.0
53429.0,STARLINK-4543,PAYLOAD,2024-03-28 05:09:28,15.08854863,0.0001275,53.2173,58.1704,99.2313,260.8823,0.00089812,0.0001404,0.0,0 STARLINK-4543,1 53429U 22097AT  24088.21491431  .00014040  00000-0  89812-3 0  9990,2 53429  53.2173  58.1704 0001275  99.2313 260.8823 15.08854863 90896,6917.835,95.437,540.582,538.818,0.0
53429.0,STARLINK-4543,PAYLOAD,2024-03-28 06:44:51,15.08854162,0.0001181,53.2173,57.8724,94.5738,265.5389,0.0013448,0.00021188,0.0,0 STARLINK-4543,1 53429U 22097AT  24088.28115406  .00021188  00000-0  13448-2 0  9994,2 53429  53.2173  57.8724 0001181  94.5738 265.5389 15.08854162 91385,6917.837,95.437,540.519,538.885,0.0
53429.0,STARLINK-4543,PAYLOAD,2024-03-28 14:41:47,15.08863044,0.00012,53.2177,56.3849,91.8446,268.2683,0.0015256,0.00024091,0.0,0 STARLINK-4543,1 53429U 22097AT  24088.61235109  .00024091  00000-0  15256-2 0  9999,2 53429  53.2177  56.3849 0001200  91.8446 268.2683 15.08863044 91431,6917.81,95.436,540.505,538.845,0.0
53429.0,STARLINK-4543,PAYLOAD,2024-03-29 05:00:15,15.0884402,0.000102,53.2163,53.7068,88.8379,271.273,0.0016988,0.00026855,0.0,0 STARLINK-4543,1 53429U 22097AT  24089.20851573  .00026855  00000-0  16988-2 0  9997,2 53429  53.2163  53.7068 0001020  88.8379 271.2730 15.08844020 91048,6917.868,95.437,540.439,539.027,0.0
53429.0,STARLINK-4543,PAYLOAD,2024-03-29 14:32:34,15.08860624,0.0001353,53.2181,51.9244,77.7505,282.3638,0.001772,0.00028042,0.0,0 STARLINK-4543,1 53429U 22097AT  24089.60595530  .00028042  00000-0  17720-2 0  9994,2 53429  53.2181  51.9244 0001353  77.7505 282.3638 15.08860624 91588,6917.817,95.436,540.618,538.746,0.0
53429.0,STARLINK-4543,PAYLOAD,2024-03-30 04:51:02,15.08843499,0.0001301,53.2187,49.2507,92.889,267.2251,0.0009798,0.00015341,0.0,0 STARLINK-4543,1 53429U 22097AT  24090.20211722  .00015341  00000-0  97980-3 0  9995,2 53429  53.2187  49.2507 0001301  92.8890 267.2251 15.08843499 91195,6917.87,95.437,540.635,538.835,0.0
53429.0,STARLINK-4543,PAYLOAD,2024-03-30 06:26:25,15.08850244,0.0001349,53.218,48.9515,98.1347,261.9798,0.0011083,0.00017399,0.0,0 STARLINK-4543,1 53429U 22097AT  24090.26835618  .00017399  00000-0  11083-2 0  9991,2 53429  53.2180  48.9515 0001349  98.1347 261.9798 15.08850244 91688,6917.849,95.437,540.647,538.781,0.0
53429.0,STARLINK-4543,PAYLOAD,2024-03-31 06:00:02,15.08831724,0.0001539,53.2172,44.547,87.9981,207.2369,0.0010304,0.00016145,0.0,0 STARLINK-4543,1 53429U 22097AT  24091.25002315  .00016145  00000-0  10304-2 0  9994,2 53429  53.2172  44.5470 0001539  87.9981 207.2369 15.08831724 91355,6917.906,95.438,540.835,538.706,0.0
53429.0,STARLINK-4543,PAYLOAD,2024-03-31 14:00:01,15.08837952,0.000147,53.2172,43.0493,90.5203,216.2569,-0.0002911,-4.918e-05,0.0,0 STARLINK-4543,1 53429U 22097AT  24091.58334491 -.00004918  00000-0 -29110-3 0  9996,2 53429  53.2172  43.0493 0001470  90.5203 216.2569 15.08837952  5711,6917.887,95.438,540.769,538.735,0.0
